{
    "week": 289,
    "satellites": [
        {
            "Name": "BEIDOU-2 IGSO-1 (C06)",
            "Line1": "1 36828U 10036A   24296.57909758 -.00000106  00000+0  00000+0 0  9996",
            "Line2": "2 36828  54.2527 168.4105 0042406 206.4855 330.0505  1.00293801 52057",
            "SatelliteNumber": "36828",
            "Classification": "U",
            "LaunchYear": "10",
            "LaunchNumber": "036",
            "PieceOfLaunch": "A",
            "EpochYear": "24",
            "EpochDay": 296.57909758,
            "FirstDerivativeMeanMotion": -1.06e-06,
            "SecondDerivativeMeanMotion": "00000+0",
            "BSTAR": "00000+0",
            "SetNumber": "999",
            "Inclination": 54.2527,
            "RAAN": 168.4105,
            "Eccentricity": 0.0042406,
            "ArgumentOfPerigee": 206.4855,
            "MeanAnomaly": 330.0505,
            "MeanMotion": 1.00293801,
            "RevolutionNumber": "5205"
        },
        {
            "Name": "BEIDOU-2 G4 (C04)",
            "Line1": "1 37210U 10057A   24296.87574491 -.00000119  00000+0  00000+0 0  9994",
            "Line2": "2 37210   2.1532  69.8932 0009058 171.7059 265.4893  1.00270329 51251",
            "SatelliteNumber": "37210",
            "Classification": "U",
            "LaunchYear": "10",
            "LaunchNumber": "057",
            "PieceOfLaunch": "A",
            "EpochYear": "24",
            "EpochDay": 296.87574491,
            "FirstDerivativeMeanMotion": -1.19e-06,
            "SecondDerivativeMeanMotion": "00000+0",
            "BSTAR": "00000+0",
            "SetNumber": "999",
            "Inclination": 2.1532,
            "RAAN": 69.8932,
            "Eccentricity": 0.0009058,
            "ArgumentOfPerigee": 171.7059,
            "MeanAnomaly": 265.4893,
            "MeanMotion": 1.00270329,
            "RevolutionNumber": "5125"
        },
        {
            "Name": "BEIDOU-2 IGSO-2 (C07)",
            "Line1": "1 37256U 10068A   24296.86463828 -.00000196  00000+0  00000+0 0  9991",
            "Line2": "2 37256  48.6469 279.2575 0039536 218.0589 312.9399  1.00261869 50754",
            "SatelliteNumber": "37256",
            "Classification": "U",
            "LaunchYear": "10",
            "LaunchNumber": "068",
            "PieceOfLaunch": "A",
            "EpochYear": "24",
            "EpochDay": 296.86463828,
            "FirstDerivativeMeanMotion": -1.96e-06,
            "SecondDerivativeMeanMotion": "00000+0",
            "BSTAR": "00000+0",
            "SetNumber": "999",
            "Inclination": 48.6469,
            "RAAN": 279.2575,
            "Eccentricity": 0.0039536,
            "ArgumentOfPerigee": 218.0589,
            "MeanAnomaly": 312.9399,
            "MeanMotion": 1.00261869,
            "RevolutionNumber": "5075"
        },
        {
            "Name": "BEIDOU-2 IGSO-3 (C08)",
            "Line1": "1 37384U 11013A   24296.77007278 -.00000193  00000+0  00000+0 0  9994",
            "Line2": "2 37384  61.5460  45.8856 0032186 177.6384 193.3251  1.00276632 49623",
            "SatelliteNumber": "37384",
            "Classification": "U",
            "LaunchYear": "11",
            "LaunchNumber": "013",
            "PieceOfLaunch": "A",
            "EpochYear": "24",
            "EpochDay": 296.77007278,
            "FirstDerivativeMeanMotion": -1.93e-06,
            "SecondDerivativeMeanMotion": "00000+0",
            "BSTAR": "00000+0",
            "SetNumber": "999",
            "Inclination": 61.546,
            "RAAN": 45.8856,
            "Eccentricity": 0.0032186,
            "ArgumentOfPerigee": 177.6384,
            "MeanAnomaly": 193.3251,
            "MeanMotion": 1.00276632,
            "RevolutionNumber": "4962"
        },
        {
            "Name": "BEIDOU-2 IGSO-4 (C09)",
            "Line1": "1 37763U 11038A   24295.60093501 -.00000077  00000+0  00000+0 0  9998",
            "Line2": "2 37763  54.5596 171.0634 0129222 228.8468 302.8004  1.00281551 48596",
            "SatelliteNumber": "37763",
            "Classification": "U",
            "LaunchYear": "11",
            "LaunchNumber": "038",
            "PieceOfLaunch": "A",
            "EpochYear": "24",
            "EpochDay": 295.60093501,
            "FirstDerivativeMeanMotion": -7.7e-07,
            "SecondDerivativeMeanMotion": "00000+0",
            "BSTAR": "00000+0",
            "SetNumber": "999",
            "Inclination": 54.5596,
            "RAAN": 171.0634,
            "Eccentricity": 0.0129222,
            "ArgumentOfPerigee": 228.8468,
            "MeanAnomaly": 302.8004,
            "MeanMotion": 1.00281551,
            "RevolutionNumber": "4859"
        },
        {
            "Name": "BEIDOU-2 IGSO-5 (C10)",
            "Line1": "1 37948U 11073A   24296.86214616 -.00000176  00000+0  00000+0 0  9993",
            "Line2": "2 37948  48.7817 278.9520 0102376 221.9259 296.6834  1.00263742 47093",
            "SatelliteNumber": "37948",
            "Classification": "U",
            "LaunchYear": "11",
            "LaunchNumber": "073",
            "PieceOfLaunch": "A",
            "EpochYear": "24",
            "EpochDay": 296.86214616,
            "FirstDerivativeMeanMotion": -1.76e-06,
            "SecondDerivativeMeanMotion": "00000+0",
            "BSTAR": "00000+0",
            "SetNumber": "999",
            "Inclination": 48.7817,
            "RAAN": 278.952,
            "Eccentricity": 0.0102376,
            "ArgumentOfPerigee": 221.9259,
            "MeanAnomaly": 296.6834,
            "MeanMotion": 1.00263742,
            "RevolutionNumber": "4709"
        },
        {
            "Name": "BEIDOU-2 G5 (C05)",
            "Line1": "1 38091U 12008A   24297.14158396  .00000051  00000+0  00000+0 0  9997",
            "Line2": "2 38091   2.0738  70.6985 0009144 218.4523 212.5914  1.00269418 46444",
            "SatelliteNumber": "38091",
            "Classification": "U",
            "LaunchYear": "12",
            "LaunchNumber": "008",
            "PieceOfLaunch": "A",
            "EpochYear": "24",
            "EpochDay": 297.14158396,
            "FirstDerivativeMeanMotion": 5.1e-07,
            "SecondDerivativeMeanMotion": "00000+0",
            "BSTAR": "00000+0",
            "SetNumber": "999",
            "Inclination": 2.0738,
            "RAAN": 70.6985,
            "Eccentricity": 0.0009144,
            "ArgumentOfPerigee": 218.4523,
            "MeanAnomaly": 212.5914,
            "MeanMotion": 1.00269418,
            "RevolutionNumber": "4644"
        },
        {
            "Name": "BEIDOU-2 M3 (C11)",
            "Line1": "1 38250U 12018A   24296.19068435 -.00000075  00000+0  00000+0 0  9990",
            "Line2": "2 38250  56.2486 325.1101 0025336 263.9257  95.8292  1.86233530 85062",
            "SatelliteNumber": "38250",
            "Classification": "U",
            "LaunchYear": "12",
            "LaunchNumber": "018",
            "PieceOfLaunch": "A",
            "EpochYear": "24",
            "EpochDay": 296.19068435,
            "FirstDerivativeMeanMotion": -7.5e-07,
            "SecondDerivativeMeanMotion": "00000+0",
            "BSTAR": "00000+0",
            "SetNumber": "999",
            "Inclination": 56.2486,
            "RAAN": 325.1101,
            "Eccentricity": 0.0025336,
            "ArgumentOfPerigee": 263.9257,
            "MeanAnomaly": 95.8292,
            "MeanMotion": 1.8623353,
            "RevolutionNumber": "8506"
        },
        {
            "Name": "BEIDOU-2 M4 (C12)",
            "Line1": "1 38251U 12018B   24296.12089712 -.00000075  00000+0  00000+0 0  9995",
            "Line2": "2 38251  56.1543 324.3744 0016230 264.8415  95.0162  1.86231937 84717",
            "SatelliteNumber": "38251",
            "Classification": "U",
            "LaunchYear": "12",
            "LaunchNumber": "018",
            "PieceOfLaunch": "B",
            "EpochYear": "24",
            "EpochDay": 296.12089712,
            "FirstDerivativeMeanMotion": -7.5e-07,
            "SecondDerivativeMeanMotion": "00000+0",
            "BSTAR": "00000+0",
            "SetNumber": "999",
            "Inclination": 56.1543,
            "RAAN": 324.3744,
            "Eccentricity": 0.001623,
            "ArgumentOfPerigee": 264.8415,
            "MeanAnomaly": 95.0162,
            "MeanMotion": 1.86231937,
            "RevolutionNumber": "8471"
        },
        {
            "Name": "BEIDOU-2 M6 (C14)",
            "Line1": "1 38775U 12050B   24296.36740790  .00000000  00000+0  00000+0 0  9995",
            "Line2": "2 38775  56.0192  82.9158 0010466 346.6651  13.2972  1.86231001 82080",
            "SatelliteNumber": "38775",
            "Classification": "U",
            "LaunchYear": "12",
            "LaunchNumber": "050",
            "PieceOfLaunch": "B",
            "EpochYear": "24",
            "EpochDay": 296.3674079,
            "FirstDerivativeMeanMotion": 0.0,
            "SecondDerivativeMeanMotion": "00000+0",
            "BSTAR": "00000+0",
            "SetNumber": "999",
            "Inclination": 56.0192,
            "RAAN": 82.9158,
            "Eccentricity": 0.0010466,
            "ArgumentOfPerigee": 346.6651,
            "MeanAnomaly": 13.2972,
            "MeanMotion": 1.86231001,
            "RevolutionNumber": "8208"
        }
    ]
}